[{"OBJECT_NAME":"STARLINK-3981","OBJECT_ID":"2022-053AH","EPOCH":"2026-03-09T12:38:13.805088","MEAN_MOTION":15.08839843,"ECCENTRICITY":0.00013868,"INCLINATION":53.2179,"RA_OF_ASC_NODE":144.8557,"ARG_OF_PERICENTER":94.485,"MEAN_ANOMALY":265.63,"EPHEMERIS_TYPE":0,"CLASSIFICATION_TYPE":"U","NORAD_CAT_ID":52687,"ELEMENT_SET_NO":999,"REV_AT_EPOCH":21109,"BSTAR":3.8085407e-5,"MEAN_MOTION_DOT":3.18e-6,"MEAN_MOTION_DDOT":0},{"OBJECT_NAME":"SL-18 R\/B","OBJECT_ID":"2001-007B","EPOCH":"2026-03-09T23:25:11.323200","MEAN_MOTION":15.07301441,"ECCENTRICITY":0.00085554,"INCLINATION":97.6926,"RA_OF_ASC_NODE":87.6817,"ARG_OF_PERICENTER":353.225,"MEAN_ANOMALY":6.886,"EPHEMERIS_TYPE":0,"CLASSIFICATION_TYPE":"U","NORAD_CAT_ID":26703,"ELEMENT_SET_NO":999,"REV_AT_EPOCH":64619,"BSTAR":0.00021543689,"MEAN_MOTION_DOT":3.19e-5,"MEAN_MOTION_DDOT":0}]
